NORAD_CAT_ID,OBJECT_NAME,OBJECT_TYPE,EPOCH,MEAN_MOTION,ECCENTRICITY,INCLINATION,RA_OF_ASC_NODE,ARG_OF_PERICENTER,MEAN_ANOMALY,BSTAR,MEAN_MOTION_DOT,MEAN_MOTION_DDOT,TLE_LINE0,TLE_LINE1,TLE_LINE2,SEMIMAJOR_AXIS,PERIOD,APOGEE,PERIGEE,DECAYED
49737.0,STARLINK-3225,PAYLOAD,2023-04-29 08:05:05,15.08841942,0.0001193,53.2155,161.8896,111.2104,248.9015,0.00011053,1.472e-05,0.0,0 STARLINK-3225,1 49737U 21115P   23119.33687159  .00001472  00000-0  11053-3 0  9995,2 49737  53.2155 161.8896 0001193 111.2104 248.9015 15.08841942 77720,6917.874,95.437,540.565,538.914,0.0
49737.0,STARLINK-3225,PAYLOAD,2023-04-30 03:09:43,15.08839363,0.000105,53.2159,158.3226,93.6024,266.5088,0.00022473,3.291e-05,0.0,0 STARLINK-3225,1 49737U 21115P   23120.13175617  .00003291  00000-0  22473-3 0  9995,2 49737  53.2159 158.3226 0001050  93.6024 266.5088 15.08839363 78954,6917.882,95.438,540.474,539.021,0.0
49737.0,STARLINK-3225,PAYLOAD,2023-04-30 07:55:53,15.08837707,0.000107,53.2157,157.4298,100.2734,259.8379,0.00020247,2.936e-05,0.0,0 STARLINK-3225,1 49737U 21115P   23120.33047674  .00002936  00000-0  20247-3 0  9990,2 49737  53.2157 157.4298 0001070 100.2734 259.8379 15.08837707 77874,6917.887,95.438,540.493,539.012,0.0
49737.0,STARLINK-3225,PAYLOAD,2023-05-01 06:11:17,15.08837873,0.0001227,53.2154,153.2647,108.2261,251.8864,0.00013176,1.81e-05,0.0,0 STARLINK-3225,1 49737U 21115P   23121.25783888  .00001810  00000-0  13176-3 0  9999,2 49737  53.2154 153.2647 0001227 108.2261 251.8864 15.08837873 79125,6917.887,95.438,540.601,538.903,0.0
49737.0,STARLINK-3225,PAYLOAD,2023-05-01 10:57:26,15.08838939,0.0001204,53.2158,152.373,105.5676,254.5449,0.00013837,1.915e-05,0.0,0 STARLINK-3225,1 49737U 21115P   23121.45655894  .00001915  00000-0  13837-3 0  9996,2 49737  53.2158 152.3730 0001204 105.5676 254.5449 15.08838939 78040,6917.884,95.438,540.582,538.916,0.0
49737.0,STARLINK-3225,PAYLOAD,2023-05-02 10:48:13,15.08847483,0.0001078,53.2151,147.9127,94.2007,265.9108,0.00020649,3.001e-05,0.0,0 STARLINK-3225,1 49737U 21115P   23122.45015540  .00003001  00000-0  20649-3 0  9992,2 49737  53.2151 147.9127 0001078  94.2007 265.9108 15.08847483 79306,6917.858,95.437,540.468,538.977,0.0
49737.0,STARLINK-3225,PAYLOAD,2023-05-03 05:52:51,15.08837815,0.000103,53.2148,144.345,86.849,273.262,3.4545e-05,2.62e-06,0.0,0 STARLINK-3225,1 49737U 21115P   23123.24504051  .00000262  00000-0  34545-4 0  9997,2 49737  53.2148 144.3450 0001030  86.8490 273.2620 15.08837815 79425,6917.887,95.438,540.465,539.04,0.0
49737.0,STARLINK-3225,PAYLOAD,2023-05-03 10:39:00,15.08839442,0.0001055,53.2149,143.4529,87.2316,272.8797,5.04e-05,5.14e-06,0.0,0 STARLINK-3225,1 49737U 21115P   23123.44375968  .00000514  00000-0  50400-4 0  9990,2 49737  53.2149 143.4529 0001055  87.2316 272.8797 15.08839442 78340,6917.882,95.438,540.477,539.017,0.0
49737.0,STARLINK-3225,PAYLOAD,2023-05-04 10:29:48,15.08841653,0.0001026,53.216,138.9921,95.5676,264.5433,1.2759e-05,-8.5e-07,0.0,0 STARLINK-3225,1 49737U 21115P   23124.43736153 -.00000085  00000-0  12759-4 0  9996,2 49737  53.2160 138.9921 0001026  95.5676 264.5433 15.08841653 79609,6917.875,95.437,540.45,539.031,0.0
49737.0,STARLINK-3225,PAYLOAD,2023-05-05 10:20:34,15.08844273,0.0001008,53.216,134.5309,97.5332,262.5775,0.00010945,1.455e-05,0.0,0 STARLINK-3225,1 49737U 21115P   23125.43095742  .00001455  00000-0  10945-3 0  9994,2 49737  53.2160 134.5309 0001008  97.5332 262.5775 15.08844273 78643,6917.867,95.437,540.43,539.035,0.0
49737.0,STARLINK-3225,PAYLOAD,2023-05-06 00:39:03,15.08840128,9.63e-05,53.2157,131.854,95.6767,264.4334,9.1868e-05,1.175e-05,0.0,0 STARLINK-3225,1 49737U 21115P   23126.02712123  .00001175  00000-0  91868-4 0  9992,2 49737  53.2157 131.8540 0000963  95.6767 264.4334 15.08840128 79846,6917.88,95.438,540.411,539.079,0.0
49737.0,STARLINK-3225,PAYLOAD,2023-05-06 07:00:35,15.08842384,9.58e-05,53.2157,130.6644,95.4144,264.6958,0.00010867,1.442e-05,0.0,0 STARLINK-3225,1 49737U 21115P   23126.29208059  .00001442  00000-0  10867-3 0  9995,2 49737  53.2157 130.6644 0000958  95.4144 264.6958 15.08842384 78770,6917.873,95.437,540.401,539.075,0.0
49737.0,STARLINK-3225,PAYLOAD,2023-05-07 06:51:22,15.0884678,9.5e-05,53.2153,126.204,93.629,266.4811,8.6272e-05,1.086e-05,0.0,0 STARLINK-3225,1 49737U 21115P   23127.28567703  .00001086  00000-0  86272-4 0  9997,2 49737  53.2153 126.2040 0000950  93.6290 266.4811 15.08846780 80035,6917.86,95.437,540.382,539.067,0.0
49737.0,STARLINK-3225,PAYLOAD,2023-05-07 16:23:41,15.08843472,9.11e-05,53.2149,124.4197,90.9222,269.1874,6.7577e-05,7.88e-06,0.0,0 STARLINK-3225,1 49737U 21115P   23127.68311858  .00000788  00000-0  67577-4 0  9994,2 49737  53.2149 124.4197 0000911  90.9222 269.1874 15.08843472 78980,6917.87,95.437,540.365,539.105,0.0
49737.0,STARLINK-3225,PAYLOAD,2023-05-08 06:42:10,15.08832939,0.0001188,53.217,121.7464,102.0358,258.0767,1.2079e-05,-9.6e-07,0.0,0 STARLINK-3225,1 49737U 21115P   23128.27928824 -.00000096  00000-0  12079-4 0  9997,2 49737  53.2170 121.7464 0001188 102.0358 258.0767 15.08832939 80182,6917.902,95.438,540.589,538.945,0.0
49737.0,STARLINK-3225,PAYLOAD,2023-05-08 16:14:29,15.0883662,0.000121,53.217,119.9622,101.867,258.2458,2.7873e-05,1.56e-06,0.0,0 STARLINK-3225,1 49737U 21115P   23128.67672644  .00000156  00000-0  27873-4 0  9991,2 49737  53.2170 119.9622 0001210 101.8670 258.2458 15.08836620 79130,6917.891,95.438,540.593,538.919,0.0
49737.0,STARLINK-3225,PAYLOAD,2023-05-09 04:57:33,15.08842286,0.0001185,53.2167,117.5831,101.8143,258.2982,5.7124e-05,6.21e-06,0.0,0 STARLINK-3225,1 49737U 21115P   23129.20664236  .00000621  00000-0  57124-4 0  9998,2 49737  53.2167 117.5831 0001185 101.8143 258.2982 15.08842286 80328,6917.873,95.437,540.558,538.919,0.0
49737.0,STARLINK-3225,PAYLOAD,2023-05-09 06:32:57,15.08842475,0.0001176,53.2166,117.2856,101.3848,258.7277,5.7538e-05,6.28e-06,0.0,0 STARLINK-3225,1 49737U 21115P   23129.27288216  .00000628  00000-0  57538-4 0  9991,2 49737  53.2166 117.2856 0001176 101.3848 258.7277 15.08842475 79227,6917.873,95.437,540.551,538.924,0.0
49737.0,STARLINK-3225,PAYLOAD,2023-05-10 06:23:44,15.08836515,0.0001196,53.2166,112.8232,85.9703,274.1425,8.8328e-05,1.118e-05,0.0,0 STARLINK-3225,1 49737U 21115P   23130.26648818  .00001118  00000-0  88328-4 0  9996,2 49737  53.2166 112.8232 0001196  85.9703 274.1425 15.08836515 79376,6917.891,95.438,540.583,538.929,0.0
49737.0,STARLINK-3225,PAYLOAD,2023-05-10 15:56:03,15.08838478,0.0001225,53.2167,111.0395,86.2055,273.9077,9.1963e-05,1.176e-05,0.0,0 STARLINK-3225,1 49737U 21115P   23130.66392783  .00001176  00000-0  91963-4 0  9990,2 49737  53.2167 111.0395 0001225  86.2055 273.9077 15.08838478 79432,6917.885,95.438,540.597,538.903,0.0
49737.0,STARLINK-3225,PAYLOAD,2023-05-11 06:14:31,15.08845256,0.0001284,53.2167,108.3644,84.4218,275.6921,7.8912e-05,9.68e-06,0.0,0 STARLINK-3225,1 49737U 21115P   23131.26008431  .00000968  00000-0  78912-4 0  9998,2 49737  53.2167 108.3644 0001284  84.4218 275.6921 15.08845256 79523,6917.864,95.437,540.618,538.841,0.0
49737.0,STARLINK-3225,PAYLOAD,2023-05-11 15:46:50,15.08838234,0.0001318,53.2174,106.5797,79.6729,280.4411,2.0928e-05,4.5e-07,0.0,0 STARLINK-3225,1 49737U 21115P   23131.65753068  .00000045  00000-0  20928-4 0  9994,2 49737  53.2174 106.5797 0001318  79.6729 280.4411 15.08838234 80697,6917.886,95.438,540.663,538.839,0.0
49737.0,STARLINK-3225,PAYLOAD,2023-05-12 04:29:56,15.08832557,0.000132,53.2175,104.2001,82.3772,277.737,2.7894e-05,1.56e-06,0.0,0 STARLINK-3225,1 49737U 21115P   23132.18745605  .00000156  00000-0  27894-4 0  9993,2 49737  53.2175 104.2001 0001320  82.3772 277.7370 15.08832557 79663,6917.903,95.438,540.681,538.855,0.0
49737.0,STARLINK-3225,PAYLOAD,2023-05-12 15:37:37,15.08839677,0.0001322,53.218,102.117,89.0876,271.0267,6.8439e-05,8.01e-06,0.0,0 STARLINK-3225,1 49737U 21115P   23132.65113123  .00000801  00000-0  68439-4 0  9996,2 49737  53.2180 102.1170 0001322  89.0876 271.0267 15.08839677 79734,6917.881,95.438,540.661,538.832,0.0
49737.0,STARLINK-3225,PAYLOAD,2023-05-13 04:20:41,15.0885799,0.0001298,53.2176,99.7378,89.0566,271.0575,0.00010489,1.383e-05,0.0,0 STARLINK-3225,1 49737U 21115P   23133.18103861  .00001383  00000-0  10489-3 0  9990,2 49737  53.2176  99.7378 0001298  89.0566 271.0575 15.08857990 80921,6917.825,95.436,540.588,538.792,0.0
49737.0,STARLINK-3225,PAYLOAD,2023-05-14 04:11:30,15.08839468,0.0001136,53.2161,95.2782,87.1254,272.9868,9.6635e-05,1.25e-05,0.0,0 STARLINK-3225,1 49737U 21115P   23134.17465351  .00001250  00000-0  96635-4 0  9996,2 49737  53.2161  95.2782 0001136  87.1254 272.9868 15.08839468 81071,6917.882,95.438,540.533,538.961,0.0
49737.0,STARLINK-3225,PAYLOAD,2023-05-15 04:02:16,15.0884626,0.0001119,53.216,90.8181,88.5065,271.6055,5.4645e-05,5.82e-06,0.0,0 STARLINK-3225,1 49737U 21115P   23135.16824962  .00000582  00000-0  54645-4 0  9995,2 49737  53.2160  90.8181 0001119  88.5065 271.6055 15.08846260 80116,6917.861,95.437,540.5,538.952,0.0
49737.0,STARLINK-3225,PAYLOAD,2023-05-15 13:34:35,15.08842387,0.0001175,53.216,89.0366,97.1538,262.9587,-1.6403e-05,-5.49e-06,0.0,0 STARLINK-3225,1 49737U 21115P   23135.56568955 -.00000549  00000-0 -16403-4 0  9991,2 49737  53.2160  89.0366 0001175  97.1538 262.9587 15.08842387 81282,6917.873,95.437,540.551,538.925,0.0
49737.0,STARLINK-3225,PAYLOAD,2023-05-16 05:28:27,15.08837028,0.0001294,53.2172,86.0657,111.0666,249.0464,4.7592e-05,4.7e-06,0.0,0 STARLINK-3225,1 49737U 21115P   23136.22809564  .00000470  00000-0  47592-4 0  9993,2 49737  53.2172  86.0657 0001294 111.0666 249.0464 15.08837028 81382,6917.889,95.438,540.65,538.859,0.0
49737.0,STARLINK-3225,PAYLOAD,2023-05-17 05:19:14,15.08845347,0.0001439,53.2187,81.6049,124.5695,235.5433,5.14e-05,5.3e-06,0.0,0 STARLINK-3225,1 49737U 21115P   23137.22169436  .00000530  00000-0  51400-4 0  9991,2 49737  53.2187  81.6049 0001439 124.5695 235.5433 15.08845347 80429,6917.864,95.437,540.725,538.734,0.0
